SHIJIAN-17 (SJ-17)      
1 41838U 16065A   26183.41089788  .00000131  00000+0  00000+0 0  9990
2 41838   5.7891  72.4241 0002197  35.3187 173.7243  0.99860955 35356
GOES 16                 
1 41866U 16071A   26185.55790856 -.00000079  00000+0  00000+0 0  9992
2 41866   0.3808  85.6839 0000534  47.1691 245.8762  1.00271917 35274
TIANLIAN 1-04           
1 41869U 16072A   26184.33308521  .00000042  00000+0  00000+0 0  9994
2 41869   0.9098  82.8084 0043578  90.4618  44.8571  1.00275040 35467
WGS F8 (USA 272)        
1 41879U 16075A   26183.86106249  .00000000  00000+0  00000+0 0  9992
2 41879   0.0477  61.7262 0000048   6.6830 312.3318  1.00267189 34976
FENGYUN 4A              
1 41882U 16077A   26185.53182918 -.00000345  00000+0  00000+0 0  9994
2 41882   2.3641  80.0977 0007967 157.9174 359.7446  1.00274952 35102
ECHOSTAR 19             
1 41893U 16079A   26183.63461994 -.00000129  00000+0  00000+0 0  9991
2 41893   0.0183  29.6206 0001703  84.7699 297.6529  1.00276643 34857
JCSAT-110A (JCSAT-15)   
1 41903U 16082A   26183.88759589 -.00000340  00000+0  00000+0 0  9999
2 41903   0.0176  15.8785 0000802  94.2248 240.4195  1.00270379 34917
STAR ONE D1             
1 41904U 16082B   26185.56198192  .00000000  00000+0  00000+0 0  9996
2 41904   0.0463  65.6475 0002138  53.0970 282.1782  1.00267608 34944
TJS-2                   
1 41911U 17001A   26185.65915241  .00000005  00000+0  00000+0 0  9993
2 41911   0.8756  85.1178 0000836  67.0773  74.3321  1.00273198 34896
SBIRS GEO-4 (USA 273)   
1 41937U 17004A   26183.84962556  .00000136  00000+0  00000+0 0  9999
2 41937   2.2711  43.6757 0002970  58.6191 145.5771  1.00287153 34755
HISPASAT 36W-1          
1 41942U 17006A   26183.78936292 -.00000234  00000+0  00000+0 0  9998
2 41942   0.0045 259.3148 0000813 212.5593  57.1200  1.00269597 34407
TELKOM 3S               
1 41944U 17007A   26183.82354084 -.00000352  00000+0  00000+0 0  9990
2 41944   0.0158 320.7379 0002446 142.2908 232.2974  1.00269766 34295
INTELSAT 32E (IS-32E)   
1 41945U 17007B   26183.43143799  .00000000  00000+0  00000+0 0  9996
2 41945   0.0218  28.0694 0000954 325.1520  39.3916  1.00263397 34370
ECHOSTAR 23             
1 42070U 17014A   26183.63210660 -.00000046  00000+0  00000+0 0  9999
2 42070   0.0187  36.0750 0001862  59.4884 302.7662  1.00268078 34079
WGS F9 (USA 275)        
1 42075U 17016A   26184.36436862 -.00000085  00000+0  00000+0 0  9994
2 42075   0.0188  11.6353 0000462 129.8546 259.0843  1.00270808 34052
SES-10                  
1 42432U 17017A   26183.56933301 -.00000262  00000+0  00000+0 0  9990
2 42432   0.0186  42.4916 0003014  63.1872 312.9916  1.00273517 33905
CHINASAT 16 (SJ-13)     
1 42662U 17018A   26184.24596696 -.00000341  00000+0  00000+0 0  9992
2 42662   0.0967  89.1400 0004432 130.5966 260.5869  1.00274596 33915
KOREASAT 7              
1 42691U 17023A   26183.82134186 -.00000351  00000+0  00000+0 0  9996
2 42691   0.0213 341.6245 0000684  86.5135 264.2568  1.00267351 33522
SGDC                    
1 42692U 17023B   26184.42617674 -.00000238  00000+0  00000+0 0  9996
2 42692   0.0133 348.8700 0002756 119.6259 251.5309  1.00270391 33560
GSAT-9                  
1 42695U 17024A   26185.59790872 -.00000274  00000+0  00000+0 0  9991
2 42695   0.0616  91.6730 0002168  22.1257 121.3766  1.00271888 33471
INMARSAT 5-F4           
1 42698U 17025A   26183.87420346  .00000000  00000+0  00000+0 0  9996
2 42698   0.0246  41.3937 0000508 138.1758 112.5603  1.00269474 33430
SES-15                  
1 42709U 17026A   26183.69960315  .00000071  00000+0  00000+0 0  9993
2 42709   0.0224 333.2991 0000649 116.3241 313.8103  1.00268893  7585
QZS-2 (MICHIBIKI-2)     
1 42738U 17028A   26184.47336514 -.00000107  00000+0  00000+0 0  9993
2 42738  39.4029 242.9137 0758568 269.4566  81.7440  1.00279734  7787
VIASAT-2                
1 42740U 17029A   26183.56872633 -.00000254  00000+0  00000+0 0  9996
2 42740   0.0220 295.9562 0000414 128.6843 350.8345  1.00269077 33356
EUTELSAT 172B           
1 42741U 17029B   26185.27128259  .00000006  00000+0  00000+0 0  9999
2 42741   0.0297 122.5064 0000152 308.7449 120.6950  1.00271477 33919
GSAT-19                 
1 42747U 17031A   26183.76514593  .00000136  00000+0  00000+0 0  9994
2 42747   0.0038 122.7837 0006935 317.7152 163.6350  1.00273565 33308
ECHOSTAR 21             
1 42749U 17032A   26185.58070200  .00000078  00000+0  00000+0 0  9996
2 42749   1.7698 356.7806 0002420  96.0233  49.0997  1.00270854 33275
BULGARIASAT-1           
1 42801U 17038A   26184.58087473  .00000022  00000+0  00000+0 0  9999
2 42801   0.0466  78.9199 0003047  29.1976  24.4846  1.00271290 33011
HELLAS-SAT 3            
1 42814U 17040A   26185.58642204  .00000165  00000+0  00000+0 0  9994
2 42814   0.0541  51.7019 0003890  13.4503 107.5522  1.00272896 32989
GSAT-17                 
1 42815U 17040B   26185.59721537 -.00000245  00000+0  00000+0 0  9993
2 42815   0.0454  88.6154 0001509 185.5259 316.9492  1.00269588 32960
INTELSAT 35E (IS-35E)   
1 42818U 17041A   26185.40623708 -.00000226  00000+0  00000+0 0  9997
2 42818   0.0181  37.5008 0001945  60.9092 295.7585  1.00273366 32984
COSMOS 2520             
1 42907U 17046A   26183.23504196  .00000148  00000+0  00000+0 0  9991
2 42907   0.0408 105.0003 0000565   9.5607 295.2988  1.00268661 32545
